{
  "type": "FeatureCollection",
  "features": [
    {
      "type": "Feature",
      "properties": {
        "norad_id": 58701,
        "name": "TIANMU-1 16",
        "group": "weather",
        "lat": 65.92534146844558,
        "lon": 161.2459923130605,
        "alt_km": 488.67320161621956,
        "timestamp": "2025-12-23T11:34:47.829156+00:00",
        "meta_object_name": "TIANMU-1 16",
        "meta_object_id": "2024-004B",
        "meta_epoch": "2025-12-23T04:59:09.006432",
        "meta_mean_motion": 15.24565945,
        "meta_eccentricity": 0.0004365,
        "meta_inclination": 97.4564,
        "meta_ra_of_asc_node": 178.0183,
        "meta_arg_of_pericenter": 248.2409,
        "meta_mean_anomaly": 111.8365,
        "meta_ephemeris_type": 0,
        "meta_classification_type": "U",
        "meta_norad_cat_id": 58701,
        "meta_element_set_no": 999,
        "meta_rev_at_epoch": 10894,
        "meta_bstar": 0.0003148,
        "meta_mean_motion_dot": 7.685e-05,
        "meta_mean_motion_ddot": 0,
        "tle_line1": "1 58701U 24004B   25357.20774313  .00007685  00000+0  31480-3 0  9994",
        "tle_line2": "2 58701  97.4564 178.0183 0004365 248.2409 111.8365 15.24565945108946"
      },
      "geometry": {
        "type": "Point",
        "coordinates": [
          161.2459923130605,
          65.92534146844558
        ]
      }
    },
    {
      "type": "Feature",
      "properties": {
        "norad_id": 58702,
        "name": "TIANMU-1 17",
        "group": "weather",
        "lat": 26.417039060944195,
        "lon": 2.439485703603395,
        "alt_km": 491.3022294203711,
        "timestamp": "2025-12-23T11:34:47.829171+00:00",
        "meta_object_name": "TIANMU-1 17",
        "meta_object_id": "2024-004C",
        "meta_epoch": "2025-12-23T04:36:32.229216",
        "meta_mean_motion": 15.24609327,
        "meta_eccentricity": 0.0003542,
        "meta_inclination": 97.4598,
        "meta_ra_of_asc_node": 178.4181,
        "meta_arg_of_pericenter": 249.5514,
        "meta_mean_anomaly": 110.5343,
        "meta_ephemeris_type": 0,
        "meta_classification_type": "U",
        "meta_norad_cat_id": 58702,
        "meta_element_set_no": 999,
        "meta_rev_at_epoch": 10893,
        "meta_bstar": 0.00032814,
        "meta_mean_motion_dot": 8.024e-05,
        "meta_mean_motion_ddot": 0,
        "tle_line1": "1 58702U 24004C   25357.19203969  .00008024  00000+0  32814-3 0  9997",
        "tle_line2": "2 58702  97.4598 178.4181 0003542 249.5514 110.5343 15.24609327108937"
      },
      "geometry": {
        "type": "Point",
        "coordinates": [
          2.439485703603395,
          26.417039060944195
        ]
      }
    },
    {
      "type": "Feature",
      "properties": {
        "norad_id": 58703,
        "name": "TIANMU-1 18",
        "group": "weather",
        "lat": -63.30151260695809,
        "lon": -16.200916822586603,
        "alt_km": 497.21991160392463,
        "timestamp": "2025-12-23T11:34:47.829186+00:00",
        "meta_object_name": "TIANMU-1 18",
        "meta_object_id": "2024-004D",
        "meta_epoch": "2025-12-23T04:12:39.281760",
        "meta_mean_motion": 15.24593311,
        "meta_eccentricity": 0.0002911,
        "meta_inclination": 97.4615,
        "meta_ra_of_asc_node": 178.5991,
        "meta_arg_of_pericenter": 246.542,
        "meta_mean_anomaly": 113.5512,
        "meta_ephemeris_type": 0,
        "meta_classification_type": "U",
        "meta_norad_cat_id": 58703,
        "meta_element_set_no": 999,
        "meta_rev_at_epoch": 10893,
        "meta_bstar": 0.00030631,
        "meta_mean_motion_dot": 7.481e-05,
        "meta_mean_motion_ddot": 0,
        "tle_line1": "1 58703U 24004D   25357.17545465  .00007481  00000+0  30631-3 0  9997",
        "tle_line2": "2 58703  97.4615 178.5991 0002911 246.5420 113.5512 15.24593311108936"
      },
      "geometry": {
        "type": "Point",
        "coordinates": [
          -16.200916822586603,
          -63.30151260695809
        ]
      }
    },
    {
      "type": "Feature",
      "properties": {
        "norad_id": 58990,
        "name": "INSAT-3DS",
        "group": "weather",
        "lat": -0.0571467544044656,
        "lon": -11.913736295277017,
        "alt_km": 35784.783582296244,
        "timestamp": "2025-12-23T11:34:47.829203+00:00",
        "meta_object_name": "INSAT-3DS",
        "meta_object_id": "2024-033A",
        "meta_epoch": "2025-12-22T22:06:55.502208",
        "meta_mean_motion": 1.00271735,
        "meta_eccentricity": 0.00011592,
        "meta_inclination": 0.0565,
        "meta_ra_of_asc_node": 100.6756,
        "meta_arg_of_pericenter": 173.2771,
        "meta_mean_anomaly": 231.6064,
        "meta_ephemeris_type": 0,
        "meta_classification_type": "U",
        "meta_norad_cat_id": 58990,
        "meta_element_set_no": 999,
        "meta_rev_at_epoch": 4530,
        "meta_bstar": 0,
        "meta_mean_motion_dot": -1.35e-06,
        "meta_mean_motion_ddot": 0,
        "tle_line1": "1 58990U 24033A   25356.92147572 -.00000135  00000+0  00000+0 0  9999",
        "tle_line2": "2 58990   0.0565 100.6756 0001159 173.2771 231.6064  1.00271735 45308"
      },
      "geometry": {
        "type": "Point",
        "coordinates": [
          -11.913736295277017,
          -0.0571467544044656
        ]
      }
    },
    {
      "type": "Feature",
      "properties": {
        "norad_id": 59051,
        "name": "METEOR-M2 4",
        "group": "weather",
        "lat": 73.49435958142114,
        "lon": -76.80188694096417,
        "alt_km": 811.7270457532313,
        "timestamp": "2025-12-23T11:34:47.829281+00:00",
        "meta_object_name": "METEOR-M2 4",
        "meta_object_id": "2024-039A",
        "meta_epoch": "2025-12-23T04:28:17.704992",
        "meta_mean_motion": 14.22402732,
        "meta_eccentricity": 0.0006491,
        "meta_inclination": 98.6782,
        "meta_ra_of_asc_node": 313.9321,
        "meta_arg_of_pericenter": 327.3513,
        "meta_mean_anomaly": 32.7263,
        "meta_ephemeris_type": 0,
        "meta_classification_type": "U",
        "meta_norad_cat_id": 59051,
        "meta_element_set_no": 999,
        "meta_rev_at_epoch": 9424,
        "meta_bstar": 2.7858e-05,
        "meta_mean_motion_dot": 1.8e-07,
        "meta_mean_motion_ddot": 0,
        "tle_line1": "1 59051U 24039A   25357.18631603  .00000018  00000+0  27858-4 0  9990",
        "tle_line2": "2 59051  98.6782 313.9321 0006491 327.3513  32.7263 14.22402732 94247"
      },
      "geometry": {
        "type": "Point",
        "coordinates": [
          -76.80188694096417,
          73.49435958142114
        ]
      }
    },
    {
      "type": "Feature",
      "properties": {
        "norad_id": 60133,
        "name": "GOES 19",
        "group": "weather",
        "lat": -0.0003131029941489898,
        "lon": -169.22773426523082,
        "alt_km": 35788.87498802936,
        "timestamp": "2025-12-23T11:34:47.829308+00:00",
        "meta_object_name": "GOES 19",
        "meta_object_id": "2024-119A",
        "meta_epoch": "2025-12-22T21:21:59.804064",
        "meta_mean_motion": 1.00272021,
        "meta_eccentricity": 9.707e-05,
        "meta_inclination": 0.0098,
        "meta_ra_of_asc_node": 264.6523,
        "meta_arg_of_pericenter": 59.6972,
        "meta_mean_anomaly": 12.6533,
        "meta_ephemeris_type": 0,
        "meta_classification_type": "U",
        "meta_norad_cat_id": 60133,
        "meta_element_set_no": 999,
        "meta_rev_at_epoch": 519,
        "meta_bstar": 0,
        "meta_mean_motion_dot": -2.27e-06,
        "meta_mean_motion_ddot": 0,
        "tle_line1": "1 60133U 24119A   25356.89027551 -.00000227  00000+0  00000+0 0  9998",
        "tle_line2": "2 60133   0.0098 264.6523 0000970  59.6972  12.6533  1.00272021  5194"
      },
      "geometry": {
        "type": "Point",
        "coordinates": [
          -169.22773426523082,
          -0.0003131029941489898
        ]
      }
    },
    {
      "type": "Feature",
      "properties": {
        "norad_id": 65815,
        "name": "FENGYUN 3H",
        "group": "weather",
        "lat": -37.93905445046636,
        "lon": 110.01673601656378,
        "alt_km": 832.2448890026071,
        "timestamp": "2025-12-23T11:34:47.829319+00:00",
        "meta_object_name": "FENGYUN 3H",
        "meta_object_id": "2025-219A",
        "meta_epoch": "2025-12-23T02:05:55.513248",
        "meta_mean_motion": 14.19907283,
        "meta_eccentricity": 7.83e-05,
        "meta_inclination": 98.66,
        "meta_ra_of_asc_node": 296.4537,
        "meta_arg_of_pericenter": 107.0369,
        "meta_mean_anomaly": 253.0893,
        "meta_ephemeris_type": 0,
        "meta_classification_type": "U",
        "meta_norad_cat_id": 65815,
        "meta_element_set_no": 999,
        "meta_rev_at_epoch": 1239,
        "meta_bstar": 6.0417e-05,
        "meta_mean_motion_dot": 8.5e-07,
        "meta_mean_motion_ddot": 0,
        "tle_line1": "1 65815U 25219A   25357.08744807  .00000085  00000+0  60417-4 0  9998",
        "tle_line2": "2 65815  98.6600 296.4537 0000783 107.0369 253.0893 14.19907283 12395"
      },
      "geometry": {
        "type": "Point",
        "coordinates": [
          110.01673601656378,
          -37.93905445046636
        ]
      }
    }
  ]
}